{"type": "FeatureCollection", "features": [{"type": "Feature", "properties": {"city": "Dhaka"}, "geometry": {"type": "Polygon", "coordinates": [[[90.35249999999999, 23.720000000000002], [90.4725, 23.720000000000002], [90.4725, 23.84], [90.35249999999999, 23.84], [90.35249999999999, 23.720000000000002]]]}}, {"type": "Feature", "properties": {"city": "Chattogram"}, "geometry": {"type": "Polygon", "coordinates": [[[91.75999999999999, 22.285], [91.88, 22.285], [91.88, 22.404999999999998], [91.75999999999999, 22.404999999999998], [91.75999999999999, 22.285]]]}}, {"type": "Feature", "properties": {"city": "Khulna"}, "geometry": {"type": "Polygon", "coordinates": [[[89.49, 22.77], [89.61, 22.77], [89.61, 22.889999999999997], [89.49, 22.889999999999997], [89.49, 22.77]]]}}, {"type": "Feature", "properties": {"city": "Rajshahi"}, "geometry": {"type": "Polygon", "coordinates": [[[88.53999999999999, 24.310000000000002], [88.66, 24.310000000000002], [88.66, 24.43], [88.53999999999999, 24.43], [88.53999999999999, 24.310000000000002]]]}}, {"type": "Feature", "properties": {"city": "Sylhet"}, "geometry": {"type": "Polygon", "coordinates": [[[91.81, 24.835], [91.93, 24.835], [91.93, 24.955], [91.81, 24.955], [91.81, 24.835]]]}}, {"type": "Feature", "properties": {"city": "Barishal"}, "geometry": {"type": "Polygon", "coordinates": [[[90.295, 22.645], [90.415, 22.645], [90.415, 22.764999999999997], [90.295, 22.764999999999997], [90.295, 22.645]]]}}, {"type": "Feature", "properties": {"city": "Rangpur"}, "geometry": {"type": "Polygon", "coordinates": [[[89.19, 25.685000000000002], [89.31, 25.685000000000002], [89.31, 25.805], [89.19, 25.805], [89.19, 25.685000000000002]]]}}, {"type": "Feature", "properties": {"city": "Mymensingh"}, "geometry": {"type": "Polygon", "coordinates": [[[90.345, 24.69], [90.465, 24.69], [90.465, 24.81], [90.345, 24.81], [90.345, 24.69]]]}}]}